NORAD_CAT_ID,OBJECT_NAME,OBJECT_TYPE,EPOCH,MEAN_MOTION,ECCENTRICITY,INCLINATION,RA_OF_ASC_NODE,ARG_OF_PERICENTER,MEAN_ANOMALY,BSTAR,MEAN_MOTION_DOT,MEAN_MOTION_DDOT,TLE_LINE0,TLE_LINE1,TLE_LINE2,SEMIMAJOR_AXIS,PERIOD,APOGEE,PERIGEE,DECAYED
52863.0,STARLINK-4270,PAYLOAD,2024-05-27 18:59:41,15.08838383,0.0001299,53.2184,66.1156,103.5044,256.6093,8.6206e-05,1.084e-05,0.0,0 STARLINK-4270,1 52863U 22062AK  24148.79144759  .00001084  00000-0  86206-4 0  9990,2 52863  53.2184  66.1156 0001299 103.5044 256.6093 15.08838383108155,6917.885,95.438,540.649,538.852,0.0
52863.0,STARLINK-4270,PAYLOAD,2024-05-27 22:10:27,15.08837574,0.0001304,53.2184,65.5209,104.6486,255.4651,7.2905e-05,8.73e-06,0.0,0 STARLINK-4270,1 52863U 22062AK  24148.92392832  .00000873  00000-0  72905-4 0  9998,2 52863  53.2184  65.5209 0001304 104.6486 255.4651 15.08837574107681,6917.888,95.438,540.655,538.851,0.0
52863.0,STARLINK-4270,PAYLOAD,2024-05-28 10:53:32,15.08838961,0.0001288,53.2185,63.1421,105.0534,255.0601,6.3678e-05,7.26e-06,0.0,0 STARLINK-4270,1 52863U 22062AK  24149.45384777  .00000726  00000-0  63678-4 0  9990,2 52863  53.2185  63.1421 0001288 105.0534 255.0601 15.08838961107763,6917.884,95.438,540.64,538.858,0.0
52863.0,STARLINK-4270,PAYLOAD,2024-05-28 22:01:14,15.08838882,0.0001261,53.2181,61.0616,97.3743,262.7393,6.0652e-05,6.78e-06,0.0,0 STARLINK-4270,1 52863U 22062AK  24149.91752861  .00000678  00000-0  60652-4 0  9999,2 52863  53.2181  61.0616 0001261  97.3743 262.7393 15.08838882107831,6917.884,95.438,540.621,538.876,0.0
52863.0,STARLINK-4270,PAYLOAD,2024-05-28 23:36:37,15.08839785,0.0001263,53.218,60.7643,96.2995,263.8141,6.6073e-05,7.64e-06,0.0,0 STARLINK-4270,1 52863U 22062AK  24149.98376784  .00000764  00000-0  66073-4 0  9991,2 52863  53.2180  60.7643 0001263  96.2995 263.8141 15.08839785108337,6917.881,95.438,540.62,538.872,0.0
52863.0,STARLINK-4270,PAYLOAD,2024-05-29 21:52:01,15.08838518,0.0001242,53.2183,56.6043,81.2166,278.8967,9.1081e-05,1.162e-05,0.0,0 STARLINK-4270,1 52863U 22062AK  24150.91113031  .00001162  00000-0  91081-4 0  9990,2 52863  53.2183  56.6043 0001242  81.2166 278.8967 15.08838518107984,6917.885,95.438,540.609,538.891,0.0
52863.0,STARLINK-4270,PAYLOAD,2024-05-30 02:38:10,15.08842623,0.0001309,53.2183,55.7102,94.0718,266.0424,0.00011707,1.576e-05,0.0,0 STARLINK-4270,1 52863U 22062AK  24151.10984658  .00001576  00000-0  11707-3 0  9998,2 52863  53.2183  55.7102 0001309  94.0718 266.0424 15.08842623108507,6917.872,95.437,540.643,538.832,0.0
52863.0,STARLINK-4270,PAYLOAD,2024-05-30 21:42:48,15.08840691,0.0001434,53.2186,52.1406,92.5167,267.5989,7.8833e-05,9.67e-06,0.0,0 STARLINK-4270,1 52863U 22062AK  24151.90472965  .00000967  00000-0  78833-4 0  9996,2 52863  53.2186  52.1406 0001434  92.5167 267.5989 15.08840691108132,6917.878,95.438,540.735,538.751,0.0
52863.0,STARLINK-4270,PAYLOAD,2024-05-31 02:28:57,15.08842844,0.0001451,53.2184,51.2502,91.5346,268.5812,9.1129e-05,1.163e-05,0.0,0 STARLINK-4270,1 52863U 22062AK  24152.10344821  .00001163  00000-0  91129-4 0  9990,2 52863  53.2184  51.2502 0001451  91.5346 268.5812 15.08842844108165,6917.872,95.437,540.74,538.733,0.0
52863.0,STARLINK-4270,PAYLOAD,2024-05-31 23:08:59,15.08831937,0.000135,53.2172,47.3844,83.3195,276.7951,3.0202e-05,1.93e-06,0.0,0 STARLINK-4270,1 52863U 22062AK  24152.96457494  .00000193  00000-0  30202-4 0  9992,2 52863  53.2172  47.3844 0001350  83.3195 276.7951 15.08831937108296,6917.905,95.438,540.704,538.836,0.0
52863.0,STARLINK-4270,PAYLOAD,2024-06-01 10:16:39,15.08849238,0.000138,53.2169,45.3008,92.0104,268.1046,0.00011497,1.543e-05,0.0,0 STARLINK-4270,1 52863U 22062AK  24153.42824016  .00001543  00000-0  11497-3 0  9996,2 52863  53.2169  45.3008 0001380  92.0104 268.1046 15.08849238108857,6917.852,95.437,540.672,538.762,0.0
52863.0,STARLINK-4270,PAYLOAD,2024-06-01 21:24:22,15.08844294,0.0002082,53.2206,43.2174,97.094,263.0289,3.2895e-05,2.35e-06,0.0,0 STARLINK-4270,1 52863U 22062AK  24153.89192798  .00000235  00000-0  32895-4 0  9995,2 52863  53.2206  43.2174 0002082  97.0940 263.0289 15.08844294108921,6917.867,95.437,541.173,538.292,0.0
52863.0,STARLINK-4270,PAYLOAD,2024-06-02 10:07:27,15.08847518,0.0001515,53.2205,40.8403,92.0905,268.026,1.3938e-05,-6.6e-07,0.0,0 STARLINK-4270,1 52863U 22062AK  24154.42184438 -.00000066  00000-0  13938-4 0  9997,2 52863  53.2205  40.8403 0001515  92.0905 268.0260 15.08847518108515,6917.857,95.437,540.77,538.674,0.0
52863.0,STARLINK-4270,PAYLOAD,2024-06-02 22:50:33,15.0883277,0.0001625,53.2219,38.4624,96.8777,263.24,6.2722e-05,7.1e-06,0.0,0 STARLINK-4270,1 52863U 22062AK  24154.95177479  .00000710  00000-0  62722-4 0  9992,2 52863  53.2219  38.4624 0001625  96.8777 263.2400 15.08832770108594,6917.902,95.438,540.892,538.643,0.0
52863.0,STARLINK-4270,PAYLOAD,2024-06-03 22:41:19,15.08840446,0.0001659,53.2177,34.0038,89.4055,270.7127,0.00017974,2.574e-05,0.0,0 STARLINK-4270,1 52863U 22062AK  24155.94536929  .00002574  00000-0  17974-3 0  9999,2 52863  53.2177  34.0038 0001659  89.4055 270.7127 15.08840446108747,6917.879,95.438,540.892,538.596,0.0
52863.0,STARLINK-4270,PAYLOAD,2024-06-04 16:10:35,15.08805525,7.74e-05,53.2169,30.7336,93.6487,266.4593,0.00074137,0.0001152,0.0,0 STARLINK-4270,1 52863U 22062AK  24156.67402041  .00011520  00000-0  74137-3 0  9992,2 52863  53.2169  30.7336 0000774  93.6487 266.4593 15.08805525109340,6917.986,95.44,540.386,539.315,0.0
52863.0,STARLINK-4270,PAYLOAD,2024-06-04 22:32:07,15.08843334,0.0001705,53.2066,29.5361,93.187,266.9317,5.1361e-05,5.29e-06,0.0,0 STARLINK-4270,1 52863U 22062AK  24156.93897125  .00000529  00000-0  51361-4 0  9994,2 52863  53.2066  29.5361 0001705  93.1870 266.9317 15.08843334108894,6917.87,95.437,540.915,538.556,0.0
52863.0,STARLINK-4270,PAYLOAD,2024-06-05 08:04:26,15.08839738,0.0001809,53.2169,27.7592,80.4461,279.6735,6.7848e-05,7.92e-06,0.0,0 STARLINK-4270,1 52863U 22062AK  24157.33641540  .00000792  00000-0  67848-4 0  9996,2 52863  53.2169  27.7592 0001809  80.4461 279.6735 15.08839738109444,6917.881,95.438,540.998,538.495,0.0
52863.0,STARLINK-4270,PAYLOAD,2024-06-05 22:22:54,15.08837067,0.0001187,53.2204,25.0818,73.8347,286.2775,1.3156e-05,-7.8e-07,0.0,0 STARLINK-4270,1 52863U 22062AK  24157.93257863 -.00000078  00000-0  13156-4 0  9994,2 52863  53.2204  25.0818 0001187  73.8347 286.2775 15.08837067109041,6917.889,95.438,540.576,538.933,0.0
52863.0,STARLINK-4270,PAYLOAD,2024-06-06 07:55:13,15.08838685,0.0001239,53.2214,23.2971,64.9299,295.1821,1.6492e-05,-2.5e-07,0.0,0 STARLINK-4270,1 52863U 22062AK  24158.33001866 -.00000025  00000-0  16492-4 0  9997,2 52863  53.2214  23.2971 0001239  64.9299 295.1821 15.08838685109102,6917.884,95.438,540.607,538.892,0.0
52863.0,STARLINK-4270,PAYLOAD,2024-06-06 23:49:04,15.08834179,0.0001806,53.2193,20.3213,78.1875,281.9319,0.00012496,1.701e-05,0.0,0 STARLINK-4270,1 52863U 22062AK  24158.99241850  .00001701  00000-0  12496-3 0  9998,2 52863  53.2193  20.3213 0001806  78.1875 281.9319 15.08834179109695,6917.898,95.438,541.013,538.514,0.0
52863.0,STARLINK-4270,PAYLOAD,2024-06-07 07:45:59,15.08852772,0.0002017,53.216,18.8365,76.4303,283.6913,0.00020901,3.041e-05,0.0,0 STARLINK-4270,1 52863U 22062AK  24159.32360895  .00003041  00000-0  20901-3 0  9996,2 52863  53.2160  18.8365 0002017  76.4303 283.6913 15.08852772109745,6917.841,95.437,541.102,538.311,0.0
52863.0,STARLINK-4270,PAYLOAD,2024-06-07 22:04:28,15.08833836,0.0001781,53.2201,16.1582,72.4088,287.7098,1.8005e-05,-2e-08,0.0,0 STARLINK-4270,1 52863U 22062AK  24159.91977895 -.00000002  00000-0  18005-4 0  9993,2 52863  53.2201  16.1582 0001781  72.4088 287.7098 15.08833836109341,6917.899,95.438,540.996,538.532,0.0
52863.0,STARLINK-4270,PAYLOAD,2024-06-07 23:39:51,15.08835992,0.0001823,53.2194,15.8602,72.0833,288.0357,4.7022e-05,4.6e-06,0.0,0 STARLINK-4270,1 52863U 22062AK  24159.98601803  .00000460  00000-0  47022-4 0  9991,2 52863  53.2194  15.8602 0001823  72.0833 288.0357 15.08835992109844,6917.893,95.438,541.019,538.497,0.0
52863.0,STARLINK-4270,PAYLOAD,2024-06-08 13:58:19,15.08844042,0.0002464,53.214,13.1888,80.3294,279.7976,0.0001518,2.129e-05,0.0,0 STARLINK-4270,1 52863U 22062AK  24160.58217577  .00002129  00000-0  15180-3 0  9993,2 52863  53.2140  13.1888 0002464  80.3294 279.7976 15.08844042109443,6917.868,95.437,541.438,538.028,0.0
52863.0,STARLINK-4270,PAYLOAD,2024-06-08 21:55:16,15.08836434,0.000172,53.2161,11.7024,76.0926,284.0257,-0.00014127,-2.535e-05,0.0,0 STARLINK-4270,1 52863U 22062AK  24160.91337998 -.00002535  00000-0 -14127-3 0  9993,2 52863  53.2161  11.7024 0001720  76.0926 284.0257 15.08836434109492,6917.891,95.438,540.946,538.566,0.0
52863.0,STARLINK-4270,PAYLOAD,2024-06-09 13:49:07,15.08835824,0.0001379,53.2159,8.7276,79.7663,280.3485,0.00016826,2.391e-05,0.0,0 STARLINK-4270,1 52863U 22062AK  24161.57578246  .00002391  00000-0  16826-3 0  9995,2 52863  53.2159   8.7276 0001379  79.7663 280.3485 15.08835824110083,6917.893,95.438,540.712,538.804,0.0
52863.0,STARLINK-4270,PAYLOAD,2024-06-09 21:46:03,15.08840653,0.0001306,53.2167,7.2414,82.1306,277.9834,8.0413e-05,9.92e-06,0.0,0 STARLINK-4270,1 52863U 22062AK  24161.90698207  .00000992  00000-0  80413-4 0  9991,2 52863  53.2167   7.2414 0001306  82.1306 277.9834 15.08840653109648,6917.878,95.438,540.647,538.84,0.0
52863.0,STARLINK-4270,PAYLOAD,2024-06-10 07:18:21,15.08848754,0.0001285,53.2179,5.4571,81.9343,278.1795,0.00022236,3.254e-05,0.0,0 STARLINK-4270,1 52863U 22062AK  24162.30441846  .00003254  00000-0  22236-3 0  9993,2 52863  53.2179   5.4571 0001285  81.9343 278.1795 15.08848754110190,6917.854,95.437,540.608,538.83,0.0
52863.0,STARLINK-4270,PAYLOAD,2024-06-10 20:01:27,15.08840674,0.00012,53.2188,3.0752,112.0719,248.04,0.00016804,2.388e-05,0.0,0 STARLINK-4270,1 52863U 22062AK  24162.83434310  .00002388  00000-0  16804-3 0  9990,2 52863  53.2188   3.0752 0001200 112.0719 248.0400 15.08840674110276,6917.878,95.438,540.573,538.913,0.0
